STARLINK-30494          
1 57970U 23151G   25272.25002315  .00473009  00000+0  74619-2 0  9997
2 57970  42.9950  70.3877 0023149 322.0388 212.5342 15.50827986  5786
STARLINK-30498          
1 57971U 23151H   25272.03208801  .00003883  00000+0  30246-3 0  9990
2 57971  43.0030 137.3917 0001639 291.7143  68.3524 15.02528112111411
STARLINK-30505          
1 57972U 23151J   25272.04872973  .00000383  00000+0  43378-4 0  9992
2 57972  43.0028 137.5141 0001263 270.9651  89.1047 15.02550781111414
STARLINK-30502          
1 57973U 23151K   25271.70414362 -.00001646  00000+0 -10679-3 0  9991
2 57973  43.0027 139.2282 0001239 279.1160  80.9542 15.02544417111360
STARLINK-30489          
1 57974U 23151L   25271.99546216 -.00001436  00000+0 -91289-4 0  9991
2 57974  43.0022 137.1249 0001094 285.8602  74.2119 15.02534329111413
STARLINK-30503          
1 57975U 23151M   25272.04429745  .00000148  00000+0  25999-4 0  9998
2 57975  43.0033 137.4604 0001331 261.7338  98.3353 15.02532141111414
STARLINK-30512          
1 57976U 23151N   25272.01320660  .00001360  00000+0  11569-3 0  9996
2 57976  43.0037 137.1937 0001163 261.7082  98.3629 15.02538404111418
STARLINK-30509          
1 57977U 23151P   25271.07014048  .00000944  00000+0  84923-4 0  9994
2 57977  43.0045 155.8017 0001881 256.5646 103.4986 15.02540010111116
STARLINK-30511          
1 57978U 23151Q   25271.06348357  .00000161  00000+0  27002-4 0  9993
2 57978  43.0057 155.7530 0001465 266.2281  93.8393 15.02537991111118
STARLINK-30508          
1 57979U 23151R   25271.99084192  .00006106  00000+0  46652-3 0  9996
2 57979  43.0039 150.6615 0001122 279.4402  80.6314 15.02549750111256
STARLINK-30504          
1 57980U 23151S   25271.89071594  .00001584  00000+0  70358-4 0  9995
2 57980  43.0012  67.4805 0001131 272.5746  87.4976 15.25916788112221
STARLINK-30510          
1 57981U 23151T   25272.05398419  .00001584  00000+0  13237-3 0  9995
2 57981  43.0060 150.2810 0002868 247.1875 112.8664 15.02533037111268
STARLINK-30507          
1 57982U 23151U   25272.05066082 -.00000177  00000+0  20001-5 0  9991
2 57982  43.0054 150.2600 0001600 267.1792  92.8867 15.02541395111260
STARLINK-30515          
1 57983U 23151V   25272.04732960  .00000950  00000+0  85402-4 0  9999
2 57983  43.0065 150.2326 0001574 269.9846  90.0816 15.02536974111269
STARLINK-30516          
1 57984U 23151W   25272.04400173  .00001036  00000+0  91741-4 0  9997
2 57984  43.0036 150.2081 0001512 262.0462  98.0208 15.02535168111263
STARLINK-30519          
1 57985U 23151X   25272.04067232  .00001495  00000+0  12571-3 0  9995
2 57985  43.0015 150.1854 0001177 282.9279  77.1432 15.02539354111204
