[{"OBJECT_NAME":"STARLINK-30494","OBJECT_ID":"2023-151G","EPOCH":"2025-09-29T06:00:02.000160","MEAN_MOTION":15.50827986,"ECCENTRICITY":0.00231496,"INCLINATION":42.995,"RA_OF_ASC_NODE":70.3877,"ARG_OF_PERICENTER":322.0388,"MEAN_ANOMALY":212.5342,"EPHEMERIS_TYPE":0,"CLASSIFICATION_TYPE":"U","NORAD_CAT_ID":57970,"ELEMENT_SET_NO":999,"REV_AT_EPOCH":578,"BSTAR":0.0074619128,"MEAN_MOTION_DOT":0.00473009,"MEAN_MOTION_DDOT":0},{"OBJECT_NAME":"STARLINK-30498","OBJECT_ID":"2023-151H","EPOCH":"2025-09-29T00:46:12.404064","MEAN_MOTION":15.02528112,"ECCENTRICITY":0.00016397,"INCLINATION":43.003,"RA_OF_ASC_NODE":137.3917,"ARG_OF_PERICENTER":291.7143,"MEAN_ANOMALY":68.3524,"EPHEMERIS_TYPE":0,"CLASSIFICATION_TYPE":"U","NORAD_CAT_ID":57971,"ELEMENT_SET_NO":999,"REV_AT_EPOCH":11141,"BSTAR":0.00030245677,"MEAN_MOTION_DOT":3.883e-5,"MEAN_MOTION_DDOT":0},{"OBJECT_NAME":"STARLINK-30505","OBJECT_ID":"2023-151J","EPOCH":"2025-09-29T01:10:10.248672","MEAN_MOTION":15.02550781,"ECCENTRICITY":0.00012636,"INCLINATION":43.0028,"RA_OF_ASC_NODE":137.5141,"ARG_OF_PERICENTER":270.9651,"MEAN_ANOMALY":89.1047,"EPHEMERIS_TYPE":0,"CLASSIFICATION_TYPE":"U","NORAD_CAT_ID":57972,"ELEMENT_SET_NO":999,"REV_AT_EPOCH":11141,"BSTAR":4.3378397e-5,"MEAN_MOTION_DOT":3.83e-6,"MEAN_MOTION_DDOT":0},{"OBJECT_NAME":"STARLINK-30502","OBJECT_ID":"2023-151K","EPOCH":"2025-09-28T16:53:58.008768","MEAN_MOTION":15.02544417,"ECCENTRICITY":0.0001239,"INCLINATION":43.0027,"RA_OF_ASC_NODE":139.2282,"ARG_OF_PERICENTER":279.116,"MEAN_ANOMALY":80.9542,"EPHEMERIS_TYPE":0,"CLASSIFICATION_TYPE":"U","NORAD_CAT_ID":57973,"ELEMENT_SET_NO":999,"REV_AT_EPOCH":11136,"BSTAR":-0.00010678546,"MEAN_MOTION_DOT":-1.646e-5,"MEAN_MOTION_DDOT":0},{"OBJECT_NAME":"STARLINK-30489","OBJECT_ID":"2023-151L","EPOCH":"2025-09-28T23:53:27.930624","MEAN_MOTION":15.02534329,"ECCENTRICITY":0.0001094,"INCLINATION":43.0022,"RA_OF_ASC_NODE":137.1249,"ARG_OF_PERICENTER":285.8602,"MEAN_ANOMALY":74.2119,"EPHEMERIS_TYPE":0,"CLASSIFICATION_TYPE":"U","NORAD_CAT_ID":57974,"ELEMENT_SET_NO":999,"REV_AT_EPOCH":11141,"BSTAR":-9.1288658e-5,"MEAN_MOTION_DOT":-1.436e-5,"MEAN_MOTION_DDOT":0},{"OBJECT_NAME":"STARLINK-30503","OBJECT_ID":"2023-151M","EPOCH":"2025-09-29T01:03:47.299680","MEAN_MOTION":15.02532141,"ECCENTRICITY":0.00013315,"INCLINATION":43.0033,"RA_OF_ASC_NODE":137.4604,"ARG_OF_PERICENTER":261.7338,"MEAN_ANOMALY":98.3353,"EPHEMERIS_TYPE":0,"CLASSIFICATION_TYPE":"U","NORAD_CAT_ID":57975,"ELEMENT_SET_NO":999,"REV_AT_EPOCH":11141,"BSTAR":2.5999395e-5,"MEAN_MOTION_DOT":1.48e-6,"MEAN_MOTION_DDOT":0},{"OBJECT_NAME":"STARLINK-30512","OBJECT_ID":"2023-151N","EPOCH":"2025-09-29T00:19:01.050240","MEAN_MOTION":15.02538404,"ECCENTRICITY":0.00011639,"INCLINATION":43.0037,"RA_OF_ASC_NODE":137.1937,"ARG_OF_PERICENTER":261.7082,"MEAN_ANOMALY":98.3629,"EPHEMERIS_TYPE":0,"CLASSIFICATION_TYPE":"U","NORAD_CAT_ID":57976,"ELEMENT_SET_NO":999,"REV_AT_EPOCH":11141,"BSTAR":0.00011568827,"MEAN_MOTION_DOT":1.36e-5,"MEAN_MOTION_DDOT":0},{"OBJECT_NAME":"STARLINK-30509","OBJECT_ID":"2023-151P","EPOCH":"2025-09-28T01:41:00.137472","MEAN_MOTION":15.0254001,"ECCENTRICITY":0.00018818,"INCLINATION":43.0045,"RA_OF_ASC_NODE":155.8017,"ARG_OF_PERICENTER":256.5646,"MEAN_ANOMALY":103.4986,"EPHEMERIS_TYPE":0,"CLASSIFICATION_TYPE":"U","NORAD_CAT_ID":57977,"ELEMENT_SET_NO":999,"REV_AT_EPOCH":11111,"BSTAR":8.492287e-5,"MEAN_MOTION_DOT":9.44e-6,"MEAN_MOTION_DDOT":0},{"OBJECT_NAME":"STARLINK-30511","OBJECT_ID":"2023-151Q","EPOCH":"2025-09-28T01:31:24.980448","MEAN_MOTION":15.02537991,"ECCENTRICITY":0.00014657,"INCLINATION":43.0057,"RA_OF_ASC_NODE":155.753,"ARG_OF_PERICENTER":266.2281,"MEAN_ANOMALY":93.8393,"EPHEMERIS_TYPE":0,"CLASSIFICATION_TYPE":"U","NORAD_CAT_ID":57978,"ELEMENT_SET_NO":999,"REV_AT_EPOCH":11111,"BSTAR":2.7002392e-5,"MEAN_MOTION_DOT":1.61e-6,"MEAN_MOTION_DDOT":0},{"OBJECT_NAME":"STARLINK-30508","OBJECT_ID":"2023-151R","EPOCH":"2025-09-28T23:46:48.741888","MEAN_MOTION":15.0254975,"ECCENTRICITY":0.00011227,"INCLINATION":43.0039,"RA_OF_ASC_NODE":150.6615,"ARG_OF_PERICENTER":279.4402,"MEAN_ANOMALY":80.6314,"EPHEMERIS_TYPE":0,"CLASSIFICATION_TYPE":"U","NORAD_CAT_ID":57979,"ELEMENT_SET_NO":999,"REV_AT_EPOCH":11125,"BSTAR":0.00046652162,"MEAN_MOTION_DOT":6.106e-5,"MEAN_MOTION_DDOT":0},{"OBJECT_NAME":"STARLINK-30504","OBJECT_ID":"2023-151S","EPOCH":"2025-09-28T21:22:37.857216","MEAN_MOTION":15.25916788,"ECCENTRICITY":0.00011315,"INCLINATION":43.0012,"RA_OF_ASC_NODE":67.4805,"ARG_OF_PERICENTER":272.5746,"MEAN_ANOMALY":87.4976,"EPHEMERIS_TYPE":0,"CLASSIFICATION_TYPE":"U","NORAD_CAT_ID":57980,"ELEMENT_SET_NO":999,"REV_AT_EPOCH":11222,"BSTAR":7.0357857e-5,"MEAN_MOTION_DOT":1.584e-5,"MEAN_MOTION_DDOT":0},{"OBJECT_NAME":"STARLINK-30510","OBJECT_ID":"2023-151T","EPOCH":"2025-09-29T01:17:44.234016","MEAN_MOTION":15.02533037,"ECCENTRICITY":0.00028686,"INCLINATION":43.006,"RA_OF_ASC_NODE":150.281,"ARG_OF_PERICENTER":247.1875,"MEAN_ANOMALY":112.8664,"EPHEMERIS_TYPE":0,"CLASSIFICATION_TYPE":"U","NORAD_CAT_ID":57981,"ELEMENT_SET_NO":999,"REV_AT_EPOCH":11126,"BSTAR":0.00013237011,"MEAN_MOTION_DOT":1.584e-5,"MEAN_MOTION_DDOT":0},{"OBJECT_NAME":"STARLINK-30507","OBJECT_ID":"2023-151U","EPOCH":"2025-09-29T01:12:57.094848","MEAN_MOTION":15.02541395,"ECCENTRICITY":0.00016003,"INCLINATION":43.0054,"RA_OF_ASC_NODE":150.26,"ARG_OF_PERICENTER":267.1792,"MEAN_ANOMALY":92.8867,"EPHEMERIS_TYPE":0,"CLASSIFICATION_TYPE":"U","NORAD_CAT_ID":57982,"ELEMENT_SET_NO":999,"REV_AT_EPOCH":11126,"BSTAR":2.000089e-6,"MEAN_MOTION_DOT":-1.77e-6,"MEAN_MOTION_DDOT":0},{"OBJECT_NAME":"STARLINK-30515","OBJECT_ID":"2023-151V","EPOCH":"2025-09-29T01:08:09.277440","MEAN_MOTION":15.02536974,"ECCENTRICITY":0.00015747,"INCLINATION":43.0065,"RA_OF_ASC_NODE":150.2326,"ARG_OF_PERICENTER":269.9846,"MEAN_ANOMALY":90.0816,"EPHEMERIS_TYPE":0,"CLASSIFICATION_TYPE":"U","NORAD_CAT_ID":57983,"ELEMENT_SET_NO":999,"REV_AT_EPOCH":11126,"BSTAR":8.54022e-5,"MEAN_MOTION_DOT":9.5e-6,"MEAN_MOTION_DDOT":0},{"OBJECT_NAME":"STARLINK-30516","OBJECT_ID":"2023-151W","EPOCH":"2025-09-29T01:03:21.749472","MEAN_MOTION":15.02535168,"ECCENTRICITY":0.00015128,"INCLINATION":43.0036,"RA_OF_ASC_NODE":150.2081,"ARG_OF_PERICENTER":262.0462,"MEAN_ANOMALY":98.0208,"EPHEMERIS_TYPE":0,"CLASSIFICATION_TYPE":"U","NORAD_CAT_ID":57984,"ELEMENT_SET_NO":999,"REV_AT_EPOCH":11126,"BSTAR":9.174064e-5,"MEAN_MOTION_DOT":1.036e-5,"MEAN_MOTION_DDOT":0},{"OBJECT_NAME":"STARLINK-30519","OBJECT_ID":"2023-151X","EPOCH":"2025-09-29T00:58:34.088448","MEAN_MOTION":15.02539354,"ECCENTRICITY":0.00011779,"INCLINATION":43.0015,"RA_OF_ASC_NODE":150.1854,"ARG_OF_PERICENTER":282.9279,"MEAN_ANOMALY":77.1432,"EPHEMERIS_TYPE":0,"CLASSIFICATION_TYPE":"U","NORAD_CAT_ID":57985,"ELEMENT_SET_NO":999,"REV_AT_EPOCH":11120,"BSTAR":0.00012570991,"MEAN_MOTION_DOT":1.495e-5,"MEAN_MOTION_DDOT":0}]
